[{"OBJECT_NAME":"BLUEBON","OBJECT_ID":"2025-009CH","EPOCH":"2026-03-09T16:52:33.225312","MEAN_MOTION":15.29047254,"ECCENTRICITY":0.00011933,"INCLINATION":97.4017,"RA_OF_ASC_NODE":152.2033,"ARG_OF_PERICENTER":43.39,"MEAN_ANOMALY":316.7434,"EPHEMERIS_TYPE":0,"CLASSIFICATION_TYPE":"U","NORAD_CAT_ID":62688,"ELEMENT_SET_NO":999,"REV_AT_EPOCH":6376,"BSTAR":0.00037313027,"MEAN_MOTION_DOT":0.00010452,"MEAN_MOTION_DDOT":0},{"OBJECT_NAME":"STARLINK-35884","OBJECT_ID":"2025-294Q","EPOCH":"2026-03-09T22:49:23.966112","MEAN_MOTION":15.27590416,"ECCENTRICITY":7.907e-5,"INCLINATION":42.9978,"RA_OF_ASC_NODE":36.2104,"ARG_OF_PERICENTER":155.0667,"MEAN_ANOMALY":205.0223,"EPHEMERIS_TYPE":0,"CLASSIFICATION_TYPE":"U","NORAD_CAT_ID":67044,"ELEMENT_SET_NO":999,"REV_AT_EPOCH":1484,"BSTAR":0.00099283371,"MEAN_MOTION_DOT":0.00027168,"MEAN_MOTION_DDOT":0}]
